[
   {
      "name": "LAGEOS 1",
      "line1": "1 08820U 76039A   21092.73645932  .00000022  00000-0  00000-0 0  9990",
      "line2": "2 08820 109.8304 247.9959 0045085 348.5239 352.3604  6.38664721792011",
      "bstar": 0.0,
      "inc": 109.8304,
      "raan": 247.9959,
      "ecc": 0.0045085,
      "argp": 348.5239,
      "nu": 352.3604,
      "mmo": 6.38664722,
      "a": 12271.18649
   },
   {
      "name": "AJISAI (EGS)",
      "line1": "1 16908U 86061A   21092.87108608 -.00000083  00000-0  98921-4 0  9992",
      "line2": "2 16908  50.0079 233.7685 0011327  21.7880 139.9281 12.44493600243691",
      "bstar": 9.8921,
      "inc": 50.0079,
      "raan": 233.7685,
      "ecc": 0.0011327,
      "argp": 21.788,
      "nu": 139.9281,
      "mmo": 12.444936,
      "a": 7865.74862
   },
   {
      "name": "COSMOS 1989 (ETALON 1)",
      "line1": "1 19751U 89001C   21092.50774535  .00000026  00000-0  00000-0 0  9999",
      "line2": "2 19751  64.2178 137.5455 0023148 211.8585 278.2220  2.13156290250831",
      "bstar": 0.0,
      "inc": 64.2178,
      "raan": 137.5455,
      "ecc": 0.0023148,
      "argp": 211.8585,
      "nu": 278.222,
      "mmo": 2.1315629,
      "a": 25503.69306
   },
   {
      "name": "COSMOS 2024 (ETALON 2)",
      "line1": "1 20026U 89039C   21092.92571366 -.00000077  00000-0  00000-0 0  9997",
      "line2": "2 20026  65.5380  15.3118 0018272 220.0770  67.1142  2.13204184247960",
      "bstar": 0.0,
      "inc": 65.538,
      "raan": 15.3118,
      "ecc": 0.0018272,
      "argp": 220.077,
      "nu": 67.1142,
      "mmo": 2.13204184,
      "a": 25499.8735
   },
   {
      "name": "LAGEOS 2",
      "line1": "1 22195U 92070B   21092.24944139 -.00000009  00000-0  00000-0 0  9997",
      "line2": "2 22195  52.6785  28.6334 0137501  75.7104 217.5163  6.47293475672402",
      "bstar": 0.0,
      "inc": 52.6785,
      "raan": 28.6334,
      "ecc": 0.0137501,
      "argp": 75.7104,
      "nu": 217.5163,
      "mmo": 6.47293476,
      "a": 12161.88861
   },
   {
      "name": "STELLA",
      "line1": "1 22824U 93061B   21092.97106934 -.00000048  00000-0 -44486-6 0  9996",
      "line2": "2 22824  98.9784  97.2784 0006311 359.5802  29.6469 14.27383773433545",
      "bstar": -0.044486,
      "inc": 98.9784,
      "raan": 97.2784,
      "ecc": 0.0006311,
      "argp": 359.5802,
      "nu": 29.6469,
      "mmo": 14.27383773,
      "a": 7178.62617
   },
   {
      "name": "LARES",
      "line1": "1 38077U 12006A   21092.67473106 -.00000014  00000-0  15065-3 0  9998",
      "line2": "2 38077  69.4937 300.1983 0007338  22.4664 337.6704 12.54931452418609",
      "bstar": 15.065,
      "inc": 69.4937,
      "raan": 300.1983,
      "ecc": 0.0007338,
      "argp": 22.4664,
      "nu": 337.6704,
      "mmo": 12.54931452,
      "a": 7822.07253
   },
   {
      "name": "MOLNIYA 2-9",
      "line1": "1 07276U 74026A   21091.53298596 -.00000001  00000-0  00000-0 0  9993",
      "line2": "2 07276  64.2030 292.9687 6699606 285.8989  13.8741  2.45094074238522",
      "bstar": 0.0,
      "inc": 64.203,
      "raan": 292.9687,
      "ecc": 0.6699606,
      "argp": 285.8989,
      "nu": 13.8741,
      "mmo": 2.45094074,
      "a": 23236.99516
   },
   {
      "name": "MOLNIYA 2-10",
      "line1": "1 07376U 74056A   21092.40910681  .00000566  00000-0  00000-0 0  9995",
      "line2": "2 07376  63.6469 139.4461 6670648 290.2817  12.9178  2.01069179341486",
      "bstar": 0.0,
      "inc": 63.6469,
      "raan": 139.4461,
      "ecc": 0.6670648,
      "argp": 290.2817,
      "nu": 12.9178,
      "mmo": 2.01069179,
      "a": 26515.80633
   },
   {
      "name": "MOLNIYA 1-S",
      "line1": "1 07392U 74060A   21092.70129995  .00000051  00000-0  00000-0 0  9990",
      "line2": "2 07392   6.2030 289.4651 0009446 188.1765  21.7866  1.00330726115108",
      "bstar": 0.0,
      "inc": 6.203,
      "raan": 289.4651,
      "ecc": 0.0009446,
      "argp": 188.1765,
      "nu": 21.7866,
      "mmo": 1.00330726,
      "a": 42148.21675
   },
   {
      "name": "MOLNIYA 1-29",
      "line1": "1 07780U 75036A   21092.53716546  .00000001  00000-0 -84618-2 0  9995",
      "line2": "2 07780  63.2189 269.6802 7212649 289.5085   9.8604  2.00643383336776",
      "bstar": -846.18,
      "inc": 63.2189,
      "raan": 269.6802,
      "ecc": 0.7212649,
      "argp": 289.5085,
      "nu": 9.8604,
      "mmo": 2.00643383,
      "a": 26553.30681
   },
   {
      "name": "MOLNIYA 2-14",
      "line1": "1 08195U 75081A   21090.28650630 -.00000571  00000-0  27991-1 0  9999",
      "line2": "2 08195  63.2861 239.6519 7097781 294.0333   9.5020  2.02059429333951",
      "bstar": 2799.1,
      "inc": 63.2861,
      "raan": 239.6519,
      "ecc": 0.7097781,
      "argp": 294.0333,
      "nu": 9.502,
      "mmo": 2.02059429,
      "a": 26429.10322
   },
   {
      "name": "MOLNIYA 1-32",
      "line1": "1 08601U 76006A   21090.07430258 -.00000651  00000-0 -15236-3 0  9999",
      "line2": "2 08601  63.0974   4.2092 7414893 281.6693  10.6809  2.00093224 43805",
      "bstar": -15.236,
      "inc": 63.0974,
      "raan": 4.2092,
      "ecc": 0.7414893,
      "argp": 281.6693,
      "nu": 10.6809,
      "mmo": 2.00093224,
      "a": 26601.95698
   },
   {
      "name": "MOLNIYA 1-36",
      "line1": "1 09880U 77021A   21092.72939771  .00000229  00000-0 -52559-3 0  9994",
      "line2": "2 09880  63.0817 333.5093 7420719 287.7054   9.2632  2.00931296220560",
      "bstar": -52.559,
      "inc": 63.0817,
      "raan": 333.5093,
      "ecc": 0.7420719,
      "argp": 287.7054,
      "nu": 9.2632,
      "mmo": 2.00931296,
      "a": 26527.93539
   },
   {
      "name": "MOLNIYA 3-8",
      "line1": "1 10455U 77105A   21092.01946809  .00000931  00000-0  13890-3 0  9993",
      "line2": "2 10455  62.6819  67.1009 7359884 279.2640  11.5540  2.00799012318284",
      "bstar": 13.89,
      "inc": 62.6819,
      "raan": 67.1009,
      "ecc": 0.7359884,
      "argp": 279.264,
      "nu": 11.554,
      "mmo": 2.00799012,
      "a": 26539.58497
   },
   {
      "name": "MOLNIYA 1-40",
      "line1": "1 10925U 78055A   21092.13197909  .00000868  00000-0  00000-0 0  9997",
      "line2": "2 10925  62.6745 109.5993 7132029 279.0521  13.0710  2.00618267313826",
      "bstar": 0.0,
      "inc": 62.6745,
      "raan": 109.5993,
      "ecc": 0.7132029,
      "argp": 279.0521,
      "nu": 13.071,
      "mmo": 2.00618267,
      "a": 26555.52296
   },
   {
      "name": "MOLNIYA 3-10",
      "line1": "1 11057U 78095A   21092.68301622  .00000391  00000-0  44454-3 0  9992",
      "line2": "2 11057  62.8320 204.4179 5871927 304.3368  13.2551  4.09819152365673",
      "bstar": 44.454,
      "inc": 62.832,
      "raan": 204.4179,
      "ecc": 0.5871927,
      "argp": 304.3368,
      "nu": 13.2551,
      "mmo": 4.09819152,
      "a": 16494.54504
   },
   {
      "name": "MOLNIYA 3-13",
      "line1": "1 11896U 80063A   21091.34052735  .00000563  00000-0  00000-0 0  9998",
      "line2": "2 11896  62.6094 192.3131 7055881 276.0859  14.4908  2.00629419298238",
      "bstar": 0.0,
      "inc": 62.6094,
      "raan": 192.3131,
      "ecc": 0.7055881,
      "argp": 276.0859,
      "nu": 14.4908,
      "mmo": 2.00629419,
      "a": 26554.53889
   },
   {
      "name": "MOLNIYA 1-49",
      "line1": "1 12156U 81009A   21091.31249574 -.00000415  00000-0  33805-2 0  9993",
      "line2": "2 12156  61.7870 230.7038 7182731 256.3437  21.0223  2.05703645212397",
      "bstar": 338.05,
      "inc": 61.787,
      "raan": 230.7038,
      "ecc": 0.7182731,
      "argp": 256.3437,
      "nu": 21.0223,
      "mmo": 2.05703645,
      "a": 26116.03146
   },
   {
      "name": "MOLNIYA 1-52",
      "line1": "1 13012U 81123A   21091.67356010 -.00001203  00000-0  00000-0 0  9990",
      "line2": "2 13012  62.8249 345.3875 7307585 249.7139  23.1109  2.00468336287718",
      "bstar": 0.0,
      "inc": 62.8249,
      "raan": 345.3875,
      "ecc": 0.7307585,
      "argp": 249.7139,
      "nu": 23.1109,
      "mmo": 2.00468336,
      "a": 26568.76195
   },
   {
      "name": "MOLNIYA 1-53",
      "line1": "1 13070U 82015A   21092.46216763 -.00001391  00000-0  18405-2 0  9991",
      "line2": "2 13070  62.5223 274.5373 7322762 279.6957  11.5071  2.00786602286415",
      "bstar": 184.05,
      "inc": 62.5223,
      "raan": 274.5373,
      "ecc": 0.7322762,
      "argp": 279.6957,
      "nu": 11.5071,
      "mmo": 2.00786602,
      "a": 26540.67851
   },
   {
      "name": "MOLNIYA 3-20",
      "line1": "1 13875U 83015A   21091.95066684  .00000082  00000-0  00000-0 0  9998",
      "line2": "2 13875  63.2676  60.4739 7303317 255.7211  20.1501  2.00397660214854",
      "bstar": 0.0,
      "inc": 63.2676,
      "raan": 60.4739,
      "ecc": 0.7303317,
      "argp": 255.7211,
      "nu": 20.1501,
      "mmo": 2.0039766,
      "a": 26575.00841
   },
   {
      "name": "MOLNIYA 1-56",
      "line1": "1 13890U 83019A   21092.11193410 -.00000789  00000-0  00000-0 0  9991",
      "line2": "2 13890  63.1309  86.1114 7296384 261.1805 124.1242  1.99841483277771",
      "bstar": 0.0,
      "inc": 63.1309,
      "raan": 86.1114,
      "ecc": 0.7296384,
      "argp": 261.1805,
      "nu": 124.1242,
      "mmo": 1.99841483,
      "a": 26624.29268
   },
   {
      "name": "MOLNIYA 1-62",
      "line1": "1 15214U 84089A   21092.26606170 -.00000670  00000-0 -46961-3 0  9998",
      "line2": "2 15214  62.7286  90.2236 7438163 266.8560  14.4973  1.97962514235511",
      "bstar": -46.961,
      "inc": 62.7286,
      "raan": 90.2236,
      "ecc": 0.7438163,
      "argp": 266.856,
      "nu": 14.4973,
      "mmo": 1.97962514,
      "a": 26792.49764
   }
]